<?xml version="1.0" encoding="UTF-8"?>
<ndm xmlns:xsi="http://www.w3.org/2001/XMLSchema-instance" xsi:noNamespaceSchemaLocation="https://sanaregistry.org/r/ndmxml_unqualified/ndmxml-2.0.0-master-2.0.xsd">
<omm id="CCSDS_OMM_VERS" version="2.0">
<header><CREATION_DATE/><ORIGINATOR/></header><body><segment><metadata><OBJECT_NAME>IRIDIUM 146</OBJECT_NAME><OBJECT_ID>2018-030F</OBJECT_ID><CENTER_NAME>EARTH</CENTER_NAME><REF_FRAME>TEME</REF_FRAME><TIME_SYSTEM>UTC</TIME_SYSTEM><MEAN_ELEMENT_THEORY>SGP4</MEAN_ELEMENT_THEORY></metadata><data><meanElements><EPOCH>2025-02-04T17:22:31.458144</EPOCH><MEAN_MOTION>14.34219829</MEAN_MOTION><ECCENTRICITY>.0002543</ECCENTRICITY><INCLINATION>86.4010</INCLINATION><RA_OF_ASC_NODE>138.4052</RA_OF_ASC_NODE><ARG_OF_PERICENTER>93.6322</ARG_OF_PERICENTER><MEAN_ANOMALY>266.5165</MEAN_ANOMALY></meanElements><tleParameters><EPHEMERIS_TYPE>0</EPHEMERIS_TYPE><CLASSIFICATION_TYPE>U</CLASSIFICATION_TYPE><NORAD_CAT_ID>43254</NORAD_CAT_ID><ELEMENT_SET_NO>999</ELEMENT_SET_NO><REV_AT_EPOCH>35883</REV_AT_EPOCH><BSTAR>.21194E-3</BSTAR><MEAN_MOTION_DOT>.613E-5</MEAN_MOTION_DOT><MEAN_MOTION_DDOT>0</MEAN_MOTION_DDOT></tleParameters></data></segment></body></omm>
<omm id="CCSDS_OMM_VERS" version="2.0">
<header><CREATION_DATE/><ORIGINATOR/></header><body><segment><metadata><OBJECT_NAME>IRIDIUM 148</OBJECT_NAME><OBJECT_ID>2018-030G</OBJECT_ID><CENTER_NAME>EARTH</CENTER_NAME><REF_FRAME>TEME</REF_FRAME><TIME_SYSTEM>UTC</TIME_SYSTEM><MEAN_ELEMENT_THEORY>SGP4</MEAN_ELEMENT_THEORY></metadata><data><meanElements><EPOCH>2025-02-04T16:36:51.397056</EPOCH><MEAN_MOTION>14.34219692</MEAN_MOTION><ECCENTRICITY>.0002202</ECCENTRICITY><INCLINATION>86.4014</INCLINATION><RA_OF_ASC_NODE>138.4538</RA_OF_ASC_NODE><ARG_OF_PERICENTER>91.7725</ARG_OF_PERICENTER><MEAN_ANOMALY>268.3723</MEAN_ANOMALY></meanElements><tleParameters><EPHEMERIS_TYPE>0</EPHEMERIS_TYPE><CLASSIFICATION_TYPE>U</CLASSIFICATION_TYPE><NORAD_CAT_ID>43255</NORAD_CAT_ID><ELEMENT_SET_NO>999</ELEMENT_SET_NO><REV_AT_EPOCH>35887</REV_AT_EPOCH><BSTAR>.24571E-3</BSTAR><MEAN_MOTION_DOT>.708E-5</MEAN_MOTION_DOT><MEAN_MOTION_DDOT>0</MEAN_MOTION_DDOT></tleParameters></data></segment></body></omm>
<omm id="CCSDS_OMM_VERS" version="2.0">
<header><CREATION_DATE/><ORIGINATOR/></header><body><segment><metadata><OBJECT_NAME>IRIDIUM 142</OBJECT_NAME><OBJECT_ID>2018-030H</OBJECT_ID><CENTER_NAME>EARTH</CENTER_NAME><REF_FRAME>TEME</REF_FRAME><TIME_SYSTEM>UTC</TIME_SYSTEM><MEAN_ELEMENT_THEORY>SGP4</MEAN_ELEMENT_THEORY></metadata><data><meanElements><EPOCH>2025-02-04T09:09:19.509984</EPOCH><MEAN_MOTION>14.34216493</MEAN_MOTION><ECCENTRICITY>.0002416</ECCENTRICITY><INCLINATION>86.4009</INCLINATION><RA_OF_ASC_NODE>138.4907</RA_OF_ASC_NODE><ARG_OF_PERICENTER>88.6337</ARG_OF_PERICENTER><MEAN_ANOMALY>271.5136</MEAN_ANOMALY></meanElements><tleParameters><EPHEMERIS_TYPE>0</EPHEMERIS_TYPE><CLASSIFICATION_TYPE>U</CLASSIFICATION_TYPE><NORAD_CAT_ID>43256</NORAD_CAT_ID><ELEMENT_SET_NO>999</ELEMENT_SET_NO><REV_AT_EPOCH>35878</REV_AT_EPOCH><BSTAR>.22911E-3</BSTAR><MEAN_MOTION_DOT>.661E-5</MEAN_MOTION_DOT><MEAN_MOTION_DDOT>0</MEAN_MOTION_DDOT></tleParameters></data></segment></body></omm>
<omm id="CCSDS_OMM_VERS" version="2.0">
<header><CREATION_DATE/><ORIGINATOR/></header><body><segment><metadata><OBJECT_NAME>IRIDIUM 150</OBJECT_NAME><OBJECT_ID>2018-030J</OBJECT_ID><CENTER_NAME>EARTH</CENTER_NAME><REF_FRAME>TEME</REF_FRAME><TIME_SYSTEM>UTC</TIME_SYSTEM><MEAN_ELEMENT_THEORY>SGP4</MEAN_ELEMENT_THEORY></metadata><data><meanElements><EPOCH>2025-02-04T13:25:03.511488</EPOCH><MEAN_MOTION>14.34219100</MEAN_MOTION><ECCENTRICITY>.0002333</ECCENTRICITY><INCLINATION>86.4011</INCLINATION><RA_OF_ASC_NODE>138.5165</RA_OF_ASC_NODE><ARG_OF_PERICENTER>94.3094</ARG_OF_PERICENTER><MEAN_ANOMALY>265.8369</MEAN_ANOMALY></meanElements><tleParameters><EPHEMERIS_TYPE>0</EPHEMERIS_TYPE><CLASSIFICATION_TYPE>U</CLASSIFICATION_TYPE><NORAD_CAT_ID>43257</NORAD_CAT_ID><ELEMENT_SET_NO>999</ELEMENT_SET_NO><REV_AT_EPOCH>35885</REV_AT_EPOCH><BSTAR>.20585E-3</BSTAR><MEAN_MOTION_DOT>.596E-5</MEAN_MOTION_DOT><MEAN_MOTION_DDOT>0</MEAN_MOTION_DDOT></tleParameters></data></segment></body></omm>
<omm id="CCSDS_OMM_VERS" version="2.0">
<header><CREATION_DATE/><ORIGINATOR/></header><body><segment><metadata><OBJECT_NAME>IRIDIUM 143</OBJECT_NAME><OBJECT_ID>2018-030K</OBJECT_ID><CENTER_NAME>EARTH</CENTER_NAME><REF_FRAME>TEME</REF_FRAME><TIME_SYSTEM>UTC</TIME_SYSTEM><MEAN_ELEMENT_THEORY>SGP4</MEAN_ELEMENT_THEORY></metadata><data><meanElements><EPOCH>2025-02-04T07:56:15.451296</EPOCH><MEAN_MOTION>14.34219273</MEAN_MOTION><ECCENTRICITY>.0002612</ECCENTRICITY><INCLINATION>86.4018</INCLINATION><RA_OF_ASC_NODE>138.6851</RA_OF_ASC_NODE><ARG_OF_PERICENTER>94.3263</ARG_OF_PERICENTER><MEAN_ANOMALY>265.8231</MEAN_ANOMALY></meanElements><tleParameters><EPHEMERIS_TYPE>0</EPHEMERIS_TYPE><CLASSIFICATION_TYPE>U</CLASSIFICATION_TYPE><NORAD_CAT_ID>43258</NORAD_CAT_ID><ELEMENT_SET_NO>999</ELEMENT_SET_NO><REV_AT_EPOCH>35873</REV_AT_EPOCH><BSTAR>.20753E-3</BSTAR><MEAN_MOTION_DOT>.601E-5</MEAN_MOTION_DOT><MEAN_MOTION_DDOT>0</MEAN_MOTION_DDOT></tleParameters></data></segment></body></omm>
<omm id="CCSDS_OMM_VERS" version="2.0">
<header><CREATION_DATE/><ORIGINATOR/></header><body><segment><metadata><OBJECT_NAME>IRIDIUM 161</OBJECT_NAME><OBJECT_ID>2018-047C</OBJECT_ID><CENTER_NAME>EARTH</CENTER_NAME><REF_FRAME>TEME</REF_FRAME><TIME_SYSTEM>UTC</TIME_SYSTEM><MEAN_ELEMENT_THEORY>SGP4</MEAN_ELEMENT_THEORY></metadata><data><meanElements><EPOCH>2025-02-04T15:37:17.427360</EPOCH><MEAN_MOTION>14.43281854</MEAN_MOTION><ECCENTRICITY>.0002088</ECCENTRICITY><INCLINATION>86.4491</INCLINATION><RA_OF_ASC_NODE>296.3820</RA_OF_ASC_NODE><ARG_OF_PERICENTER>84.0709</ARG_OF_PERICENTER><MEAN_ANOMALY>276.0730</MEAN_ANOMALY></meanElements><tleParameters><EPHEMERIS_TYPE>0</EPHEMERIS_TYPE><CLASSIFICATION_TYPE>U</CLASSIFICATION_TYPE><NORAD_CAT_ID>43478</NORAD_CAT_ID><ELEMENT_SET_NO>999</ELEMENT_SET_NO><REV_AT_EPOCH>35337</REV_AT_EPOCH><BSTAR>.24151E-3</BSTAR><MEAN_MOTION_DOT>.833E-5</MEAN_MOTION_DOT><MEAN_MOTION_DDOT>0</MEAN_MOTION_DDOT></tleParameters></data></segment></body></omm>
<omm id="CCSDS_OMM_VERS" version="2.0">
<header><CREATION_DATE/><ORIGINATOR/></header><body><segment><metadata><OBJECT_NAME>IRIDIUM 152</OBJECT_NAME><OBJECT_ID>2018-047D</OBJECT_ID><CENTER_NAME>EARTH</CENTER_NAME><REF_FRAME>TEME</REF_FRAME><TIME_SYSTEM>UTC</TIME_SYSTEM><MEAN_ELEMENT_THEORY>SGP4</MEAN_ELEMENT_THEORY></metadata><data><meanElements><EPOCH>2025-02-04T15:39:18.173088</EPOCH><MEAN_MOTION>14.34219672</MEAN_MOTION><ECCENTRICITY>.0002054</ECCENTRICITY><INCLINATION>86.3967</INCLINATION><RA_OF_ASC_NODE>296.2410</RA_OF_ASC_NODE><ARG_OF_PERICENTER>86.4203</ARG_OF_PERICENTER><MEAN_ANOMALY>273.7227</MEAN_ANOMALY></meanElements><tleParameters><EPHEMERIS_TYPE>0</EPHEMERIS_TYPE><CLASSIFICATION_TYPE>U</CLASSIFICATION_TYPE><NORAD_CAT_ID>43479</NORAD_CAT_ID><ELEMENT_SET_NO>999</ELEMENT_SET_NO><REV_AT_EPOCH>35118</REV_AT_EPOCH><BSTAR>.21353E-3</BSTAR><MEAN_MOTION_DOT>.618E-5</MEAN_MOTION_DOT><MEAN_MOTION_DDOT>0</MEAN_MOTION_DDOT></tleParameters></data></segment></body></omm>
<omm id="CCSDS_OMM_VERS" version="2.0">
<header><CREATION_DATE/><ORIGINATOR/></header><body><segment><metadata><OBJECT_NAME>IRIDIUM 147</OBJECT_NAME><OBJECT_ID>2018-047E</OBJECT_ID><CENTER_NAME>EARTH</CENTER_NAME><REF_FRAME>TEME</REF_FRAME><TIME_SYSTEM>UTC</TIME_SYSTEM><MEAN_ELEMENT_THEORY>SGP4</MEAN_ELEMENT_THEORY></metadata><data><meanElements><EPOCH>2025-02-04T05:45:38.088288</EPOCH><MEAN_MOTION>14.34219286</MEAN_MOTION><ECCENTRICITY>.0001849</ECCENTRICITY><INCLINATION>86.3968</INCLINATION><RA_OF_ASC_NODE>296.4097</RA_OF_ASC_NODE><ARG_OF_PERICENTER>79.6829</ARG_OF_PERICENTER><MEAN_ANOMALY>280.4575</MEAN_ANOMALY></meanElements><tleParameters><EPHEMERIS_TYPE>0</EPHEMERIS_TYPE><CLASSIFICATION_TYPE>U</CLASSIFICATION_TYPE><NORAD_CAT_ID>43480</NORAD_CAT_ID><ELEMENT_SET_NO>999</ELEMENT_SET_NO><REV_AT_EPOCH>35111</REV_AT_EPOCH><BSTAR>.21886E-3</BSTAR><MEAN_MOTION_DOT>.633E-5</MEAN_MOTION_DOT><MEAN_MOTION_DDOT>0</MEAN_MOTION_DDOT></tleParameters></data></segment></body></omm>
<omm id="CCSDS_OMM_VERS" version="2.0">
<header><CREATION_DATE/><ORIGINATOR/></header><body><segment><metadata><OBJECT_NAME>IRIDIUM 110</OBJECT_NAME><OBJECT_ID>2018-047F</OBJECT_ID><CENTER_NAME>EARTH</CENTER_NAME><REF_FRAME>TEME</REF_FRAME><TIME_SYSTEM>UTC</TIME_SYSTEM><MEAN_ELEMENT_THEORY>SGP4</MEAN_ELEMENT_THEORY></metadata><data><meanElements><EPOCH>2025-02-04T15:57:34.206336</EPOCH><MEAN_MOTION>14.34219358</MEAN_MOTION><ECCENTRICITY>.0001722</ECCENTRICITY><INCLINATION>86.3969</INCLINATION><RA_OF_ASC_NODE>296.3110</RA_OF_ASC_NODE><ARG_OF_PERICENTER>92.8646</ARG_OF_PERICENTER><MEAN_ANOMALY>267.2747</MEAN_ANOMALY></meanElements><tleParameters><EPHEMERIS_TYPE>0</EPHEMERIS_TYPE><CLASSIFICATION_TYPE>U</CLASSIFICATION_TYPE><NORAD_CAT_ID>43481</NORAD_CAT_ID><ELEMENT_SET_NO>999</ELEMENT_SET_NO><REV_AT_EPOCH>35116</REV_AT_EPOCH><BSTAR>.1947E-3</BSTAR><MEAN_MOTION_DOT>.565E-5</MEAN_MOTION_DOT><MEAN_MOTION_DDOT>0</MEAN_MOTION_DDOT></tleParameters></data></segment></body></omm>

</ndm>
